YAOGAN-30 08C           
1 46809U 20076C   25326.28936766  .00004222  00000+0  32320-3 0  9999
2 46809  34.9964 270.6711 0004941  53.3323 306.7838 15.01348351277018
TIANQI-6                
1 46810U 20076D   25326.14542480  .00004858  00000+0  33504-3 0  9992
2 46810  34.9993 237.4211 0009788 154.0985 206.0215 15.05204031277342
CE-SAT IIB              
1 46818U 20077F   25326.65938256  .00050425  00000+0  46752-3 0  9997
2 46818  97.2362  34.8231 0003557 196.9087 163.2056 15.67332823282677
NAVSTAR 80 (USA 309)    
1 46826U 20078A   25316.12603231 -.00000034  00000+0  00000+0 0  9994
2 46826  54.0224 219.5836 0063911 203.4987 326.7753  2.00567032 37156
RISAT-2BR2              
1 46905U 20081A   25326.59142037  .00005539  00000+0  42784-3 0  9993
2 46905  36.9004  10.8058 0016763 260.5749  99.3097 15.01211718276409
KSM1-C                  
1 46906U 20081B   25326.22355383  .00010408  00000+0  44533-3 0  9999
2 46906  36.8938 252.6569 0006195 281.6389  78.3664 15.22264585277568
KSM1-D                  
1 46907U 20081C   25326.25015178  .00010010  00000+0  44723-3 0  9998
2 46907  36.8968 258.0597 0006957 292.9908  67.0105 15.20801907277536
KSM1-A                  
1 46912U 20081H   25326.26873904  .00010478  00000+0  45545-3 0  9995
2 46912  36.8965 253.4584 0002960 324.8422  35.2131 15.21739408277599
R2                      
1 46913U 20081J   25326.09891281  .00011491  00000+0  50404-3 0  9991
2 46913  36.8991 253.5879 0009209 315.7057  44.2953 15.21366175280383
KSM1-B                  
1 46914U 20081K   25326.22894490  .00009720  00000+0  43627-3 0  9993
2 46914  36.9018 258.3584 0007808 313.3716  46.6381 15.20651092280622
TIANTONG-1 2            
1 46916U 20082A   25326.61130116 -.00000334  00000+0  00000+0 0  9994
2 46916   1.1478 306.8047 0003465 345.5254 114.5299  1.00271610 18584
DRAGRACER 2 (AUGURY)    
1 46955U 20085AC  25326.49717253  .00023001  00000+0  31787-3 0  9994
2 46955  97.5819 142.3934 0005644 320.7746  39.3099 15.57146755279562
SENTINEL-6A             
1 46984U 20086A   25326.02812310 -.00000026  00000+0  15334-3 0  9999
2 46984  66.0398 205.3256 0007733 269.1220  90.8909 12.80929600233796
STARLINK-1777           
1 47122U 20088A   25326.53118250  .00010238  00000+0  70484-3 0  9996
2 47122  53.0543  62.6724 0001463  85.3363 274.7793 15.06418821275680
STARLINK-1812           
1 47126U 20088E   25326.55698353  .00002639  00000+0  19592-3 0  9998
2 47126  53.0547  62.5526 0001299  88.7292 271.3846 15.06415826275697
STARLINK-1843           
1 47133U 20088M   25326.52328174  .00092330  00000+0  19988-2 0  9999
2 47133  53.0551  46.9557 0005519   1.3073 358.7946 15.43697824275903
STARLINK-1845           
1 47135U 20088P   25326.46207122  .00008386  00000+0  58087-3 0  9995
2 47135  53.0553  52.9837 0001151  66.2221 293.8888 15.06422574275819
STARLINK-1856           
1 47143U 20088X   25326.53211285 -.00000692  00000+0 -27564-4 0  9998
2 47143  53.0552  52.6626 0001245  92.3264 267.7868 15.06391294275824
STARLINK-1871           
1 47157U 20088AM  25326.50170034  .00001046  00000+0  89078-4 0  9996
2 47157  53.0549  62.8032 0001002  78.3301 281.7800 15.06407646275681
STARLINK-1873           
1 47158U 20088AN  25326.45838566  .00007834  00000+0  54394-3 0  9995
2 47158  53.0534  52.9985 0001048  87.9713 272.1396 15.06420092275815
STARLINK-1876           
1 47161U 20088AR  25326.55791031  .00007802  00000+0  54189-3 0  9992
2 47161  53.0563  52.5498 0000991  86.5104 273.5998 15.06414662275832
STARLINK-1888           
1 47171U 20088BB  25326.50263013  .00001657  00000+0  13011-3 0  9993
2 47171  53.0546  52.8019 0001384  95.0967 265.0180 15.06391968275826
STARLINK-1912           
1 47178U 20088BJ  25326.53486267  .00000389  00000+0  44963-4 0  9993
2 47178  53.0546  62.6519 0000969  81.0886 279.0213 15.06421247275680
STARLINK-1913           
1 47179U 20088BK  25326.52289730  .00008951  00000+0  61848-3 0  9992
2 47179  53.0550  72.7109 0001448  82.0677 278.0477 15.06431931275542
LUCAS (JDRS-1)          
1 47202U 20089A   25326.53312734  .00000000  00000+0  00000+0 0  9998
2 47202   0.0147 326.3952 0003048 293.3385  84.6802  1.00264953 18341
FALCON EYE 2            
1 47226U 20090A   25326.63277534  .00001355  00000+0  16539-3 0  9997
2 47226  97.8494  39.3439 0001319  79.1713 280.9651 14.84933888269584
GONETS-M 20             
1 47227U 20091A   25326.69199012  .00000036  00000+0  18956-3 0  9999
2 47227  82.5048  70.7953 0019888 269.8929  89.9872 12.42856424225427
GONETS-M 21             
1 47228U 20091B   25326.66497722  .00000034  00000+0  17428-3 0  9997
2 47228  82.4973  69.6459 0013665 284.1772  75.7789 12.42877059225411
GONETS-M 22             
1 47229U 20091C   25326.63861088  .00000040  00000+0  21971-3 0  9990
2 47229  82.5030  70.4643 0020766 264.8756  94.9953 12.42864696225362
COSMOS 2548             
1 47230U 20091D   25326.61890245  .00000039  00000+0  21167-3 0  9992
2 47230  82.5007  70.1309 0014026 284.0602  75.8918 12.42924508225391
GAOFEN-14 01            
1 47231U 20092A   25326.66617449  .00008576  00000+0  33492-3 0  9990
2 47231  97.2506  34.0029 0003196 245.3932 114.6974 15.26120367276340
SXM-7                   
1 47240U 20096A   25325.78490559 -.00000183  00000+0  00000+0 0  9999
2 47240   0.0055  55.3608 0004662  80.9782 122.0885  1.00271367  5365
IPM 2 & BREEZE-M R/B    
1 47242U 20097A   25325.72963516 -.00000071  00000+0  00000+0 0  9990
2 47242   4.8006  79.2657 0082865 272.1813  86.6272  0.95297728 17297
CMS-01                  
1 47256U 20099A   25326.53165400 -.00000144  00000+0  00000+0 0  9994
2 47256   0.0116  57.1911 0007796 202.6682  76.3263  1.00271617 18127
ONEWEB-0102             
1 47258U 20100A   25326.22712169 -.00000203  00000+0 -59936-3 0  9998
2 47258  87.8957  31.8018 0001806  94.9521 265.1814 13.12443317237589
ONEWEB-0109             
1 47259U 20100B   25326.23523120  .00000030  00000+0  47552-4 0  9995
2 47259  87.8961  31.7674 0001846  97.9813 262.1525 13.12443994237412
ONEWEB-0110             
1 47260U 20100C   25326.26118184  .00000384  00000+0  10314-2 0  9996
2 47260  87.8964  31.7464 0002093 102.1455 257.9908 13.12441485237588
ONEWEB-0111             
1 47261U 20100D   25326.21576127 -.00000343  00000+0 -98754-3 0  9999
2 47261  87.8962  31.7727 0001816 100.0393 260.0941 13.12442331237414
ONEWEB-0114             
1 47262U 20100E   25326.55153195  .00000370  00000+0  99371-3 0  9997
2 47262  87.8961  31.7008 0001669  90.6312 269.5008 13.12443673237415
ONEWEB-0117             
1 47263U 20100F   25326.23847831  .00000196  00000+0  51009-3 0  9992
2 47263  87.8962  31.7609 0001869 101.3905 258.7434 13.12444542237389
ONEWEB-0118             
1 47264U 20100G   25326.19467953  .00000135  00000+0  33869-3 0  9998
2 47264  87.8966  31.7688 0001449  97.7992 262.3301 13.12441358237576
ONEWEB-0119             
1 47265U 20100H   25326.22224893 -.00000343  00000+0 -98882-3 0  9996
2 47265  87.8958  31.7995 0001859  99.2074 260.9265 13.12443332237557
ONEWEB-0120             
1 47266U 20100J   25326.55005601  .00000947  00000+0  25971-2 0  9993
2 47266  87.8946  31.7349 0001766  93.8079 266.3252 13.12439796237623
ONEWEB-0121             
1 47267U 20100K   25326.23361022  .00000003  00000+0 -25674-4 0  9997
2 47267  87.8964  31.7654 0001963 102.5271 257.6078 13.12444109237492
ONEWEB-0122             
1 47268U 20100L   25326.22860580 -.00000144  00000+0 -43470-3 0  9990
2 47268  87.8964  31.7694 0001935  97.4598 262.6751 13.12443500237409
ONEWEB-0123             
1 47269U 20100M   25326.22387222 -.00000217  00000+0 -63989-3 0  9996
2 47269  87.8961  31.7976 0001723 102.1505 257.9817 13.12442810237545
ONEWEB-0124             
1 47270U 20100N   25326.21251573 -.00000374  00000+0 -10749-2 0  9995
2 47270  87.8961  31.8042 0001863 105.7580 254.3754 13.12442615237420
ONEWEB-0125             
1 47271U 20100P   25326.18981080  .00000341  00000+0  91127-3 0  9997
2 47271  87.8966  31.7704 0001655 108.5476 251.5832 13.12441856237482
ONEWEB-0126             
1 47272U 20100Q   25326.21103425 -.00000418  00000+0 -11976-2 0  9991
2 47272  87.8964  31.7895 0001762  96.6115 263.5215 13.12442646237552
ONEWEB-0127             
1 47273U 20100R   25326.25307771  .00000493  00000+0  13345-2 0  9999
2 47273  87.8963  31.7923 0001824  96.4630 263.6706 13.12442396237584
ONEWEB-0128             
1 47274U 20100S   25326.19954425 -.00000010  00000+0 -61785-4 0  9997
2 47274  87.8952  31.8209 0002059  98.1637 261.9725 13.12441907237598
ONEWEB-0129             
1 47275U 20100T   25326.17845776  .00000474  00000+0  12817-2 0  9996
2 47275  87.8965  31.7760 0001909  66.5432 293.5897 13.12442672237523
ONEWEB-0130             
1 47276U 20100U   25326.20603112 -.00000218  00000+0 -64163-3 0  9997
2 47276  87.8963  31.7660 0001897  98.5004 261.6340 13.12441380237497
ONEWEB-0131             
1 47277U 20100V   25326.20278928 -.00000157  00000+0 -47117-3 0  9993
2 47277  87.8963  31.7966 0001830 101.8978 258.2356 13.12441464237539
ONEWEB-0132             
1 47278U 20100W   25326.23198652 -.00000012  00000+0 -69895-4 0  9990
2 47278  87.8963  31.7932 0001878 100.3201 259.8140 13.12444037237434
ONEWEB-0133             
1 47279U 20100X   25326.55302571  .00000263  00000+0  69609-3 0  9991
2 47279  87.8958  31.6923 0001971 101.3228 258.8122 13.12442517237634
ONEWEB-0134             
1 47280U 20100Y   25326.21738733 -.00000340  00000+0 -98170-3 0  9992
2 47280  87.8964  31.7528 0002034  95.5391 264.5970 13.12442867237566
ONEWEB-0135             
1 47281U 20100Z   25326.18819290  .00000333  00000+0  89028-3 0  9999
2 47281  87.8965  31.7989 0002229  96.7005 263.4377 13.12442357237585
ONEWEB-0136             
1 47282U 20100AA  25326.20765239 -.00000297  00000+0 -86190-3 0  9994
2 47282  87.8963  31.7635 0002077  91.7466 268.3901 13.12441776237513
